{
    "CCSDS_OMM_VERS": "3.0",
    "COMMENT": "GENERATED VIA SPACE-TRACK.ORG API",
    "CREATION_DATE": "2025-05-22T14:26:18",
    "ORIGINATOR": "18 SPCS",
    "OBJECT_NAME": "COSMOS 2459 (GLONASS)",
    "OBJECT_ID": "2010-007A",
    "CENTER_NAME": "EARTH",
    "REF_FRAME": "TEME",
    "TIME_SYSTEM": "UTC",
    "MEAN_ELEMENT_THEORY": "SGP4",
    "EPOCH": "2025-05-22T13:26:13.624224",
    "MEAN_MOTION": "2.13116715",
    "ECCENTRICITY": "0.00256290",
    "INCLINATION": "65.6586",
    "RA_OF_ASC_NODE": "327.7625",
    "ARG_OF_PERICENTER": "347.6167",
    "MEAN_ANOMALY": "341.7030",
    "EPHEMERIS_TYPE": "0",
    "CLASSIFICATION_TYPE": "U",
    "NORAD_CAT_ID": "36400",
    "ELEMENT_SET_NO": "999",
    "REV_AT_EPOCH": "11849",
    "BSTAR": "0.00000000000000",
    "MEAN_MOTION_DOT": "-0.00000023",
    "MEAN_MOTION_DDOT": "0.0000000000000",
    "SEMIMAJOR_AXIS": "25506.850",
    "PERIOD": "675.686",
    "APOAPSIS": "19194.087",
    "PERIAPSIS": "19063.344",
    "OBJECT_TYPE": "PAYLOAD",
    "RCS_SIZE": "LARGE",
    "COUNTRY_CODE": "CIS",
    "LAUNCH_DATE": "2010-03-01",
    "SITE": "TTMTR",
    "DECAY_DATE": null,
    "FILE": "4735993",
    "GP_ID": "288122021",
    "TLE_LINE0": "0 COSMOS 2459 (GLONASS)",
    "TLE_LINE1": "1 36400U 10007A   25142.55987991 -.00000023  00000-0  00000+0 0  9993",
    "TLE_LINE2": "2 36400  65.6586 327.7625 0025629 347.6167 341.7030  2.13116715118499"
}